{"type" : "FeatureCollection", "features" : [{"type": "Feature", "geometry": {"type":"MultiPolygon","coordinates":[[[[-84.785721,38.720028],[-84.621674,38.481926],[-84.4786458,38.5070903],[-84.5317738,38.7896942],[-84.785721,38.720028]]]]}, "properties": {"osm_id": -1846574, "boundary": "administrative", "admin_level": 6, "parents": "-161655,-148838", "name": "Grant County", "local_name": "Grant County", "name_en": null, "all_tags": {"name": "Grant County", "boundary": "administrative", "way_area": "0.0699059", "wikidata": "Q491959", "wikipedia": "en:Grant County, Kentucky", "population": "24757", "admin_level": "6", "border_type": "county", "nist:fips_code": "21081", "nist:state_fips": "21"}}}, {"type": "Feature", "geometry": {"type":"MultiPolygon","coordinates":[[[[-83.991463,38.593681],[-83.859108,38.456459],[-83.624725,38.611778],[-83.9040704,38.7679689],[-83.991463,38.593681]]]]}, "properties": {"osm_id": -1846557, "boundary": "administrative", "admin_level": 6, "parents": "-161655,-148838", "name": "Mason County", "local_name": "Mason County", "name_en": null, "all_tags": {"name": "Mason County", "boundary": "administrative", "way_area": "0.0659223", "wikidata": "Q491112", "wikipedia": "en:Mason County, Kentucky", "population": "17099", "admin_level": "6", "border_type": "county", "nist:fips_code": "21161", "nist:state_fips": "21"}}}, {"type": "Feature", "geometry": {"type":"MultiPolygon","coordinates":[[[[-85.2035067,38.8119628],[-85.1729821,38.6880693],[-84.7851776,38.8800143],[-85.2027684,38.9285005],[-85.2035067,38.8119628]]]]}, "properties": {"osm_id": -1804294, "boundary": "administrative", "admin_level": 6, "parents": "-161816,-148838", "name": "Switzerland County", "local_name": "Switzerland County", "name_en": null, "all_tags": {"name": "Switzerland County", "boundary": "administrative", "timezone": "America/Indiana/Vevay", "way_area": "0.0600577", "wikidata": "Q507459", "wikipedia": "en:Switzerland County, Indiana", "admin_level": "6", "border_type": "county", "nist:fips_code": "18155", "nist:state_fips": "18"}}}, {"type": "Feature", "geometry": {"type":"MultiPolygon","coordinates":[[[[-85.1402447,38.9030798],[-84.870672,38.9009691],[-84.8302672,38.9741733],[-84.8777337,39.0311822],[-85.1402447,38.9030798]]]]}, "properties": {"osm_id": -1804290, "boundary": "administrative", "admin_level": 6, "parents": "-161816,-148838", "name": "Ohio County", "local_name": "Ohio County", "name_en": null, "all_tags": {"name": "Ohio County", "boundary": "administrative", "way_area": "0.0235753", "wikidata": "Q506727", "wikipedia": "en:Ohio County, Indiana", "admin_level": "6", "border_type": "county", "nist:fips_code": "18115", "nist:state_fips": "18"}}}, {"type": "Feature", "geometry": {"type":"MultiPolygon","coordinates":[[[[-85.684669,38.738579],[-85.428366,38.5867732],[-85.2031942,38.9139032],[-85.5380828,38.9121241],[-85.684669,38.738579]]]]}, "properties": {"osm_id": -1804289, "boundary": "administrative", "admin_level": 6, "parents": "-161816,-148838", "name": "Jefferson County", "local_name": "Jefferson County", "name_en": null, "all_tags": {"name": "Jefferson County", "boundary": "administrative", "way_area": "0.0975742", "wikidata": "Q1139839", "wikipedia": "en:Jefferson County, Indiana", "population": "32416", "admin_level": "6", "border_type": "county", "nist:fips_code": "18077", "nist:state_fips": "18"}}}, {"type": "Feature", "geometry": {"type":"MultiPolygon","coordinates":[[[[-85.0231647,38.7612585],[-84.934026,38.6625594],[-84.660027,38.777252],[-84.7797735,38.8595448],[-85.0231647,38.7612585]]]]}, "properties": {"osm_id": -1804285, "boundary": "administrative", "admin_level": 6, "parents": "-161655,-148838", "name": "Gallatin County", "local_name": "Gallatin County", "name_en": null, "all_tags": {"name": "Gallatin County", "boundary": "administrative", "way_area": "0.0280854", "wikidata": "Q500654", "wikipedia": "en:Gallatin County, Kentucky", "admin_level": "6", "border_type": "county", "nist:fips_code": "21077", "nist:state_fips": "21"}}}, {"type": "Feature", "geometry": {"type":"MultiPolygon","coordinates":[[[[-85.0363354,39.5406916],[-84.8153759,39.5228728],[-84.8143678,39.7266316],[-85.034706,39.728989],[-85.0363354,39.5406916]]]]}, "properties": {"osm_id": -1802282, "boundary": "administrative", "admin_level": 6, "parents": "-161816,-148838", "name": "Union County", "local_name": "Union County", "name_en": null, "all_tags": {"name": "Union County", "boundary": "administrative", "way_area": "0.0448895", "wikidata": "Q507308", "wikipedia": "en:Union County, Indiana", "admin_level": "6", "border_type": "county", "nist:fips_code": "18161", "nist:state_fips": "18"}}}, {"type": "Feature", "geometry": {"type":"MultiPolygon","coordinates":[[[[-85.2985441,39.5253727],[-85.29654,39.268291],[-84.8193895,39.3051856],[-84.8153759,39.5228728],[-85.2985441,39.5253727]]]]}, "properties": {"osm_id": -1802281, "boundary": "administrative", "admin_level": 6, "parents": "-161816,-148838", "name": "Franklin County", "local_name": "Franklin County", "name_en": null, "all_tags": {"name": "Franklin County", "boundary": "administrative", "way_area": "0.106185", "wikidata": "Q506779", "wikipedia": "en:Franklin County, Indiana", "population": "22872", "admin_level": "6", "border_type": "county", "nist:fips_code": "18047", "nist:state_fips": "18"}}}, {"type": "Feature", "geometry": {"type":"MultiPolygon","coordinates":[[[[-85.3017132,39.7876391],[-85.2980363,39.5253854],[-85.0361754,39.5261663],[-85.0344787,39.7147669],[-85.3017132,39.7876391]]]]}, "properties": {"osm_id": -1802224, "boundary": "administrative", "admin_level": 6, "parents": "-161816,-148838", "name": "Fayette County", "local_name": "Fayette County", "name_en": null, "all_tags": {"name": "Fayette County", "boundary": "administrative", "way_area": "0.0583868", "wikidata": "Q506506", "wikipedia": "en:Fayette County, Indiana", "population": "23434", "admin_level": "6", "border_type": "county", "nist:fips_code": "18041", "nist:state_fips": "18"}}}, {"type": "Feature", "geometry": {"type":"MultiPolygon","coordinates":[[[[-85.888399,38.732676],[-85.885643,38.575412],[-85.5701239,38.6061598],[-85.7105493,38.8278577],[-85.888399,38.732676]]]]}, "properties": {"osm_id": -1482474, "boundary": "administrative", "admin_level": 6, "parents": "-161816,-148838", "name": "Scott County", "local_name": "Scott County", "name_en": null, "all_tags": {"name": "Scott County", "boundary": "administrative", "way_area": "0.0516984", "wikidata": "Q366871", "wikipedia": "en:Scott County, Indiana", "population": "23744", "admin_level": "6", "border_type": "county", "nist:fips_code": "18143", "nist:state_fips": "18"}}}, {"type": "Feature", "geometry": {"type":"MultiPolygon","coordinates":[[[[-85.4448641,38.9275857],[-85.1358566,38.9294152],[-85.065224,39.308182],[-85.440054,39.195617],[-85.4448641,38.9275857]]]]}, "properties": {"osm_id": -1481874, "boundary": "administrative", "admin_level": 6, "parents": "-161816,-148838", "name": "Ripley County", "local_name": "Ripley County", "name_en": null, "all_tags": {"name": "Ripley County", "boundary": "administrative", "way_area": "0.120551", "wikidata": "Q506547", "wikipedia": "en:Ripley County, Indiana", "population": "28701", "admin_level": "6", "border_type": "county", "nist:fips_code": "18137", "nist:state_fips": "18"}}}, {"type": "Feature", "geometry": {"type":"MultiPolygon","coordinates":[[[[-85.687996,39.130669],[-85.29654,39.268291],[-85.2975961,39.4533601],[-85.6292072,39.4531402],[-85.687996,39.130669]]]]}, "properties": {"osm_id": -1325550, "boundary": "administrative", "admin_level": 6, "parents": "-161816,-148838", "name": "Decatur County", "local_name": "Decatur County", "name_en": null, "all_tags": {"name": "Decatur County", "boundary": "administrative", "way_area": "0.101065", "wikidata": "Q1124916", "wikipedia": "en:Decatur County, Indiana", "population": "26521", "admin_level": "6", "border_type": "county", "nist:fips_code": "18031", "nist:state_fips": "18"}}}, {"type": "Feature", "geometry": {"type":"MultiPolygon","coordinates":[[[[-85.798927,39.129074],[-85.795357,38.807508],[-85.444829,38.9130426],[-85.440054,39.195617],[-85.798927,39.129074]]]]}, "properties": {"osm_id": -1325524, "boundary": "administrative", "admin_level": 6, "parents": "-161816,-148838", "name": "Jennings County", "local_name": "Jennings County", "name_en": null, "all_tags": {"name": "Jennings County", "boundary": "administrative", "way_area": "0.101674", "wikidata": "Q512965", "wikipedia": "en:Jennings County, Indiana", "population": "27897", "admin_level": "6", "border_type": "county", "nist:fips_code": "18079", "nist:state_fips": "18"}}}, {"type": "Feature", "geometry": {"type":"MultiPolygon","coordinates":[[[[-84.8151357,39.56849],[-84.4787826,39.5682286],[-84.48542,39.918423],[-84.8125324,39.917078],[-84.8151357,39.56849]]]]}, "properties": {"osm_id": -911259, "boundary": "administrative", "admin_level": 6, "parents": "-162061,-148838", "name": "Preble County", "local_name": "Preble County", "name_en": null, "all_tags": {"ref": "PRE", "name": "Preble County", "website": "https://www.prebco.org/", "boundary": "administrative", "way_area": "0.116067", "wikidata": "Q489935", "wikipedia": "en:Preble County, Ohio", "population": "42270", "admin_level": "6", "border_type": "county", "nist:fips_code": "39135", "nist:state_fips": "39", "population:date": "2010"}}}, {"type": "Feature", "geometry": {"type":"MultiPolygon","coordinates":[[[[-84.2359248,38.8223842],[-84.2155056,38.5547442],[-83.996376,38.583771],[-83.9040704,38.7679689],[-84.2359248,38.8223842]]]]}, "properties": {"osm_id": -562944, "boundary": "administrative", "admin_level": 6, "parents": "-161655,-148838", "name": "Bracken County", "local_name": "Bracken County", "name_en": null, "all_tags": {"name": "Bracken County", "is_in": "Kentucky", "name:ar": "مقاطعة براكين", "name:es": "Condado de Bracken", "name:fr": "Comté de Bracken", "name:it": "Contea di Bracken", "name:pt": "Condado de Bracken", "name:vi": "Quận Bracken", "name:zh": "布拉肯縣", "boundary": "administrative", "name:bpy": "ব্রাকেন কাউন্টি", "way_area": "0.0559534", "wikidata": "Q491945", "wikipedia": "en:Bracken County, Kentucky", "admin_level": "6", "border_type": "county", "nist:fips_code": "21023", "nist:state_fips": "21"}}}, {"type": "Feature", "geometry": {"type":"MultiPolygon","coordinates":[[[[-84.5317738,38.7896942],[-84.4829589,38.5422232],[-84.1954116,38.5884844],[-84.2320788,38.8746992],[-84.5317738,38.7896942]]]]}, "properties": {"osm_id": -562939, "boundary": "administrative", "admin_level": 6, "parents": "-161655,-148838", "name": "Pendleton County", "local_name": "Pendleton County", "name_en": null, "all_tags": {"name": "Pendleton County", "is_in": "Kentucky", "name:ar": "مقاطعة بيندلتون", "name:es": "Condado de Pendleton", "name:fr": "Comté de Pendleton", "name:it": "Contea di Pendleton", "name:pt": "Condado de Pendleton", "name:vi": "Quận Pendleton", "name:zh": "彭德爾頓縣", "boundary": "administrative", "name:bpy": "পেন্ডলেটন কাউন্টি", "way_area": "0.0755215", "wikidata": "Q497707", "wikipedia": "en:Pendleton County, Kentucky", "population": "14408", "admin_level": "6", "border_type": "county", "nist:fips_code": "21191", "nist:state_fips": "21"}}}, {"type": "Feature", "geometry": {"type":"MultiPolygon","coordinates":[[[[-84.5061212,39.0951084],[-84.4501882,38.8190808],[-84.2320788,38.8746992],[-84.3216528,39.0233945],[-84.5061212,39.0951084]]]]}, "properties": {"osm_id": -361567, "boundary": "administrative", "admin_level": 6, "parents": "-161655,-148838", "name": "Campbell County", "local_name": "Campbell County", "name_en": null, "all_tags": {"name": "Campbell County", "is_in": "Kentucky", "name:ar": "مقاطعة كامببيل", "name:es": "Condado de Campbell", "name:fr": "Comté de Campbell", "name:it": "Contea di Campbell", "name:pt": "Condado de Campbell", "name:vi": "Quận Campbell", "name:zh": "坎貝爾縣", "boundary": "administrative", "name:bpy": "ক্যম্পবেল কাউন্টি", "way_area": "0.0427801", "wikidata": "Q491936", "wikipedia": "en:Campbell County, Kentucky", "population": "92066", "admin_level": "6", "border_type": "county", "nist:fips_code": "21037", "nist:state_fips": "21"}}}, {"type": "Feature", "geometry": {"type":"MultiPolygon","coordinates":[[[[-84.6237028,39.0743586],[-84.615448,38.802326],[-84.418762,38.805756],[-84.5036019,39.0921279],[-84.6237028,39.0743586]]]]}, "properties": {"osm_id": -361564, "boundary": "administrative", "admin_level": 6, "parents": "-161655,-148838", "name": "Kenton County", "local_name": "Kenton County", "name_en": null, "all_tags": {"name": "Kenton County", "is_in": "Kentucky", "name:ar": "مقاطعة كينتون", "name:es": "Condado de Kenton", "name:fr": "Comté de Kenton", "name:it": "Contea di Kenton", "name:pt": "Condado de Kenton", "name:vi": "Quận Kenton", "name:zh": "肯頓縣", "boundary": "administrative", "name:bpy": "কেন্টোন কাউন্টি", "way_area": "0.0443058", "wikidata": "Q498116", "wikipedia": "en:Kenton County, Kentucky", "population": "165012", "admin_level": "6", "border_type": "county", "nist:fips_code": "21117", "nist:state_fips": "21"}}}, {"type": "Feature", "geometry": {"type":"MultiPolygon","coordinates":[[[[-84.8973868,39.0554755],[-84.8703646,38.9006658],[-84.615448,38.802326],[-84.6237028,39.0743586],[-84.8973868,39.0554755]]]]}, "properties": {"osm_id": -361563, "boundary": "administrative", "admin_level": 6, "parents": "-161655,-148838", "name": "Boone County", "local_name": "Boone County", "name_en": null, "all_tags": {"name": "Boone County", "is_in": "Kentucky", "name:ar": "مقاطعة بوون", "name:es": "Condado de Boone", "name:fr": "Comté de Boone", "name:hu": "Boone megye", "name:it": "Contea di Boone", "name:ja": "ブーン郡", "name:pt": "Condado de Boone", "name:vi": "Quận Boone", "name:zh": "布恩縣", "boundary": "administrative", "name:bpy": "ভোন কাউন্টি", "way_area": "0.0691351", "wikidata": "Q113185", "wikipedia": "en:Boone County, Kentucky", "population": "127712", "admin_level": "6", "border_type": "county", "nist:fips_code": "21015", "nist:state_fips": "21"}}}, {"type": "Feature", "geometry": {"type":"MultiPolygon","coordinates":[[[[-83.8721662,39.0213211],[-83.385712,39.055172],[-83.372561,39.3773199],[-83.8657869,39.2473715],[-83.8721662,39.0213211]]]]}, "properties": {"osm_id": -271300, "boundary": "administrative", "admin_level": 6, "parents": "-162061,-148838", "name": "Highland County", "local_name": "Highland County", "name_en": null, "all_tags": {"ref": "HIG", "name": "Highland County", "boundary": "administrative", "way_area": "0.150552", "wikidata": "Q490144", "wikipedia": "en:Highland County, Ohio", "population": "43026", "admin_level": "6", "nist:fips_code": "39071", "nist:state_fips": "39"}}}, {"type": "Feature", "geometry": {"type":"MultiPolygon","coordinates":[[[[-85.1328066,38.9483186],[-84.8784064,39.0303996],[-84.8193895,39.3051856],[-85.065224,39.308182],[-85.1328066,38.9483186]]]]}, "properties": {"osm_id": -214426, "boundary": "administrative", "admin_level": 6, "parents": "-161816,-148838", "name": "Dearborn County", "local_name": "Dearborn County", "name_en": null, "all_tags": {"name": "Dearborn County", "name:fr": "Comté de Dearborn", "name:it": "Contea di Dearborn", "name:pt": "Condado de Dearborn", "name:vi": "Quận Dearborn", "name:zh": "迪尔伯恩县", "boundary": "administrative", "name:bpy": "ডিয়ারবর্ন কাউন্টি", "way_area": "0.0830755", "wikidata": "Q509757", "wikipedia": "en:Dearborn County, Indiana", "addr:state": "IN", "population": "49455", "admin_level": "6", "border_type": "county", "nist:fips_code": "18029", "nist:state_fips": "18"}}}, {"type": "Feature", "geometry": {"type":"MultiPolygon","coordinates":[[[[-84.0528363,38.7710323],[-83.7053446,38.6397483],[-83.8657869,39.2473715],[-83.9931336,39.2542652],[-84.0528363,38.7710323]]]]}, "properties": {"osm_id": -163283, "boundary": "administrative", "admin_level": 6, "parents": "-162061,-148838", "name": "Brown County", "local_name": "Brown County", "name_en": null, "all_tags": {"ref": "BRO", "name": "Brown County", "place": "county", "website": "http://www.browncountyohio.gov/", "boundary": "administrative", "way_area": "0.132807", "wikidata": "Q111575", "wikipedia": "en:Brown County, Ohio", "population": "44846", "admin_level": "6", "border_type": "county", "nist:fips_code": "39015", "nist:state_fips": "39", "population:date": "2010"}}}, {"type": "Feature", "geometry": {"type":"MultiPolygon","coordinates":[[[[-84.8203361,39.1966032],[-84.3199362,39.0215766],[-84.2564145,39.2765626],[-84.8193895,39.3051856],[-84.8203361,39.1966032]]]]}, "properties": {"osm_id": -104784, "boundary": "administrative", "admin_level": 6, "parents": "-162061,-148838", "name": "Hamilton County", "local_name": "Hamilton County", "name_en": null, "all_tags": {"ref": "HAM", "name": "Hamilton County", "name:ar": "مقاطعة هاملتون", "name:es": "Condado de Hamilton", "name:fi": "Hamiltonin piirikunta", "name:fr": "Comté de Hamilton", "name:it": "Contea di Hamilton", "name:pl": "Hrabstwo Hamilton", "name:pt": "Condado de Hamilton", "name:vi": "Quận Hamilton", "name:zh": "漢彌爾頓縣", "website": "https://www.hamiltoncountyohio.gov/", "boundary": "administrative", "name:bpy": "হ্যামিলটন কাউন্টি", "way_area": "0.11148", "wikidata": "Q152891", "wikipedia": "en:Hamilton County, Ohio", "population": "802374", "admin_level": "6", "border_type": "county", "name:etymology": "Alexander Hamilton", "nist:fips_code": "39061", "nist:state_fips": "39", "population:date": "2010", "name:etymology:wikidata": "Q178903"}}}, {"type": "Feature", "geometry": {"type":"MultiPolygon","coordinates":[[[[-84.8193895,39.3051856],[-84.353196,39.292295],[-84.3320445,39.5490332],[-84.8151124,39.5677404],[-84.8193895,39.3051856]]]]}, "properties": {"osm_id": -104783, "boundary": "administrative", "admin_level": 6, "parents": "-162061,-148838", "name": "Butler County", "local_name": "Butler County", "name_en": null, "all_tags": {"ref": "BUT", "name": "Butler County", "name:ar": "مقاطعة بتلر", "name:es": "Condado de Butler", "name:fi": "Butlerin piirikunta", "name:fr": "Comté de Butler", "name:it": "Contea di Butler", "name:pl": "Hrabstwo Butler", "name:pt": "Condado de Butler", "name:vi": "Quận Butler", "name:zh": "巴特勒縣", "website": "http://www.butlercountyohio.org/", "boundary": "administrative", "name:bpy": "বাটরার কাউন্টি", "way_area": "0.127343", "wikidata": "Q485561", "land_area": "administrative", "wikipedia": "en:Butler County, Ohio", "population": "368130", "admin_level": "6", "border_type": "county", "nist:fips_code": "39017", "nist:state_fips": "39", "population:date": "2010"}}}, {"type": "Feature", "geometry": {"type":"MultiPolygon","coordinates":[[[[-84.48542,39.918423],[-84.4791783,39.589379],[-84.1141846,39.577969],[-84.050987,39.8801],[-84.48542,39.918423]]]]}, "properties": {"osm_id": -104782, "boundary": "administrative", "admin_level": 6, "parents": "-162061,-148838", "name": "Montgomery County", "local_name": "Montgomery County", "name_en": null, "all_tags": {"ref": "MOT", "name": "Montgomery County", "website": "https://www.mcohio.org/", "boundary": "administrative", "way_area": "0.12646", "wikidata": "Q485600", "wikipedia": "en:Montgomery County, Ohio", "population": "535153", "admin_level": "6", "border_type": "county", "nist:fips_code": "39113", "nist:state_fips": "39", "population:date": "2010"}}}, {"type": "Feature", "geometry": {"type":"MultiPolygon","coordinates":[[[[-84.1141846,39.577969],[-83.6703303,39.5502549],[-83.6479368,39.7759495],[-84.092938,39.838345],[-84.1141846,39.577969]]]]}, "properties": {"osm_id": -104781, "boundary": "administrative", "admin_level": 6, "parents": "-162061,-148838", "name": "Greene County", "local_name": "Greene County", "name_en": null, "all_tags": {"ref": "GRE", "name": "Greene County", "website": "http://www.co.greene.oh.us/", "boundary": "administrative", "way_area": "0.113193", "wikidata": "Q825807", "land_area": "administrative", "wikipedia": "en:Greene County, Ohio", "population": "161573", "admin_level": "6", "border_type": "county", "nist:fips_code": "39057", "nist:state_fips": "39", "population:date": "2010"}}}, {"type": "Feature", "geometry": {"type":"MultiPolygon","coordinates":[[[[-84.0074657,39.255074],[-83.8082868,39.2246861],[-83.5762892,39.5445714],[-83.9769167,39.5691593],[-84.0074657,39.255074]]]]}, "properties": {"osm_id": -104780, "boundary": "administrative", "admin_level": 6, "parents": "-162061,-148838", "name": "Clinton County", "local_name": "Clinton County", "name_en": null, "all_tags": {"ref": "CLI", "name": "Clinton County", "website": "https://co.clinton.oh.us/", "boundary": "administrative", "way_area": "0.111765", "wikidata": "Q113875", "land_area": "administrative", "wikipedia": "en:Clinton County, Ohio", "population": "42040", "admin_level": "6", "border_type": "county", "nist:fips_code": "39027", "nist:state_fips": "39", "population:date": "2010"}}}, {"type": "Feature", "geometry": {"type":"MultiPolygon","coordinates":[[[[-84.320088,39.223126],[-84.2263378,38.8189028],[-84.0528363,38.7710323],[-83.9931336,39.2542652],[-84.320088,39.223126]]]]}, "properties": {"osm_id": -104779, "boundary": "administrative", "admin_level": 6, "parents": "-162061,-148838", "name": "Clermont County", "local_name": "Clermont County", "name_en": null, "all_tags": {"ref": "CLE", "name": "Clermont County", "place": "county", "name:ar": "مقاطعة كليرمونت", "name:es": "Condado de Clermont", "name:fi": "Clermontin piirikunta", "name:fr": "Comté de Clermont", "name:it": "Contea di Clermont", "name:pt": "Condado de Clermont", "name:vi": "Quận Clermont", "name:zh": "克萊蒙縣", "website": "https://clermontcountyohio.gov/", "boundary": "administrative", "name:bpy": "ক্লেরমোন্ট কাউন্টি", "way_area": "0.124014", "wikidata": "Q485582", "wikipedia": "en:Clermont County, Ohio", "population": "197363", "admin_level": "6", "border_type": "county", "nist:fips_code": "39025", "nist:state_fips": "39", "population:date": "2010"}}}, {"type": "Feature", "geometry": {"type":"MultiPolygon","coordinates":[[[[-84.3652334,39.5894696],[-84.353196,39.292295],[-84.0074657,39.255074],[-83.9769167,39.5691593],[-84.3652334,39.5894696]]]]}, "properties": {"osm_id": -104778, "boundary": "administrative", "admin_level": 6, "parents": "-162061,-148838", "name": "Warren County", "local_name": "Warren County", "name_en": null, "all_tags": {"ref": "WAR", "name": "Warren County", "name:ar": "مقاطعة وارن", "name:es": "Condado de Warren", "name:fi": "Warrenin piirikunta", "name:fr": "Comté de Warren", "name:it": "Contea di Warren", "name:pl": "Hrabstwo Warren", "name:pt": "Condado de Warren", "name:vi": "Quận Warren", "name:zh": "沃伦县", "website": "https://www.co.warren.oh.us/", "boundary": "administrative", "name:bpy": "ৱারেন কাউন্টি", "way_area": "0.110232", "wikidata": "Q489576", "wikipedia": "en:Warren County, Ohio", "population": "212693", "admin_level": "6", "border_type": "county", "nist:fips_code": "39165", "nist:state_fips": "39", "population:date": "2010"}}}]}